BEIDOU 3 (C01)          
1 36287U 10001A   23038.57949659 -.00000274  00000+0  00000+0 0  9990
2 36287   1.9320  52.8008 0002932 269.2340 164.4450  1.00273636 47876
BEIDOU 5 (C06)          
1 36828U 10036A   23038.88520206 -.00000123  00000+0  00000+0 0  9999
2 36828  54.2089 174.0777 0035025 184.4274 205.9089  1.00283230 45949
BEIDOU 6 (C04)          
1 37210U 10057A   23038.64478738 -.00000105  00000+0  00000+0 0  9994
2 37210   0.9701  53.8635 0004761 178.8107 297.0116  1.00272157 44999
BEIDOU 7 (C07)          
1 37256U 10068A   23038.60164086 -.00000159  00000+0  00000+0 0  9999
2 37256  49.7886 286.8260 0023254 206.2044 327.8199  1.00293655 44506
BEIDOU 8 (C08)          
1 37384U 11013A   23038.51401340 -.00000141  00000+0  00000+0 0  9990
2 37384  60.6396  51.9370 0024617 188.4981 187.6648  1.00291911 43383
BEIDOU 9 (C09)          
1 37763U 11038A   23038.84563211 -.00000049  00000+0  00000+0 0  9997
2 37763  54.4875 176.5874 0103611 227.4664 133.5885  1.00274410 42369
BEIDOU 10 (C10)         
1 37948U 11073A   23038.59933404 -.00000117  00000+0  00000+0 0  9994
2 37948  49.9102 286.4804 0085297 220.3252 302.4988  1.00280675 41117
BEIDOU 11 (C05)         
1 38091U 12008A   23038.65561502  .00000063  00000+0  00000+0 0  9995
2 38091   2.1041  71.7041 0013004 307.8309  52.7183  1.00269021 40190
BEIDOU 12 (C11)         
1 38250U 12018A   23038.64500194 -.00000085  00000+0  00000+0 0  9997
2 38250  56.6132 345.7836 0023978 262.0036 314.1046  1.86231288 73465
BEIDOU 13 (C12)         
1 38251U 12018B   23038.58149149 -.00000085  00000+0  00000+0 0  9990
2 38251  56.5263 345.0948 0015347 267.2628 310.5732  1.86234181 73469
BEIDOU 15 (C14)         
1 38775U 12050B   23038.78251696  .00000002  00000+0  00000+0 0  9998
2 38775  55.5460 103.7687 0013073 322.3211 225.5288  1.86231359 70846
BEIDOU 16 (C02)         
1 38953U 12059A   23038.82512163 -.00000169  00000+0  00000+0 0  9994
2 38953   1.5071  82.4169 0010598 294.2492 142.0746  1.00271283 37760
BEIDOU 17 (C31)         
1 40549U 15019A   23038.78131530 -.00000135  00000+0  00000+0 0  9990
2 40549  51.4659 310.0110 0035973 193.8067   5.8098  1.00302546 28798
BEIDOU 18 (C57)         
1 40748U 15037A   23038.67156104 -.00000085  00000+0  00000+0 0  9997
2 40748  55.7721 343.8146 0004874 348.9509 198.3935  1.86233169 51296
BEIDOU 19 (C58)         
1 40749U 15037B   23036.13248472 -.00000099  00000+0  00000+0 0  9992
2 40749  55.7776 343.8908 0007105 320.2180  98.8152  1.86232925 51240
BEIDOU 20 (C18)         
1 40938U 15053A   23038.59715118 -.00000084  00000+0  00000+0 0  9992
2 40938  51.1323 273.1616 0043271 193.0858 341.8199  1.00285563 27068
BEIDOU IGSO-6 (C13)     
1 41434U 16021A   23038.50995363 -.00000125  00000+0  00000+0 0  9999
2 41434  58.4409  50.4063 0049130 225.1214 141.6466  1.00279948 25195
BEIDOU-2 G7 (C03)       
1 41586U 16037A   23038.60240954 -.00000348  00000+0  00000+0 0  9991
2 41586   1.9070  70.6240 0007729 345.8905  48.1843  1.00278974 24508
BEIDOU-3 M1 (C19)       
1 43001U 17069A   23038.37591900  .00000001  00000+0  00000+0 0  9990
2 43001  55.6981 103.8138 0010815 287.6515 144.0438  1.86231470 35775
BEIDOU-3 M2 (C20)       
1 43002U 17069B   23038.20933135  .00000000  00000+0  00000+0 0  9992
2 43002  55.6967 103.8559 0008140 307.7935  54.9607  1.86231229 35763
BEIDOU-3 M3 (C27)       
1 43107U 18003A   23038.76000944 -.00000086  00000+0  00000+0 0  9996
2 43107  55.2243 344.6247 0004328  43.2360 135.2506  1.86232302 34537
BEIDOU-3 M4 (C28)       
1 43108U 18003B   23038.15769407 -.00000089  00000+0  00000+0 0  9999
2 43108  55.2202 344.6339 0004103 271.0397 266.1992  1.86230762 34527
BEIDOU-3 M5 (C21)       
1 43207U 18018A   23038.33687435  .00000000  00000+0  00000+0 0  9997
2 43207  55.6568 103.9216 0004882 325.8973  34.1488  1.86231419 33913
BEIDOU-3 M6 (C22)       
1 43208U 18018B   23037.86653346 -.00000002  00000+0  00000+0 0  9992
2 43208  55.6562 103.9422 0008209 294.8027  65.1853  1.86231536 33908
BEIDOU-3 M7 (C29)       
1 43245U 18029A   23038.36924262 -.00000087  00000+0  00000+0 0  9992
2 43245  55.1300 342.3901 0001622 316.1369 230.9777  1.86232458 33062
BEIDOU-3 M8 (C30)       
1 43246U 18029B   23038.29157938 -.00000087  00000+0  10000-3 0  9998
2 43246  55.1267 342.4217 0004904 349.6833 192.0843  1.86232628 33059
BEIDOU IGSO-7 (C16)     
1 43539U 18057A   23038.82271139 -.00000125  00000+0  00000+0 0  9991
2 43539  55.1032 173.6639 0056258 228.0456 142.2562  1.00294460 16870
BEIDOU-3 M9 (C23)       
1 43581U 18062A   23038.50461633  .00000063  00000+0  00000+0 0  9999
2 43581  54.2173 224.0427 0001863 337.5547 198.7169  1.86231878 30804
BEIDOU-3 M10 (C24)      
1 43582U 18062B   23038.63701976  .00000063  00000+0  00000+0 0  9991
2 43582  54.2170 224.0282 0006976  31.9522 324.8046  1.86229596 30809
BEIDOU-3 M11 (C25)      
1 43602U 18067A   23038.31485514  .00000062  00000+0  00000+0 0  9990
2 43602  54.3020 222.6752 0007991  23.0565 158.8732  1.86231580 30296
BEIDOU-3 M12 (C26)      
1 43603U 18067B   23037.58667065  .00000059  00000+0  00000+0 0  9998
2 43603  54.2995 222.6665 0004830  18.9907 305.0523  1.86231493 30299
BEIDOU-3 M13 (C32)      
1 43622U 18072A   23038.16506066  .00000000  00000+0  00000+0 0  9999
2 43622  55.6255 103.4725 0007309 280.8396  99.4989  1.86231550 29824
BEIDOU-3 M14 (C33)      
1 43623U 18072B   23037.47900514 -.00000004  00000+0  00000+0 0  9994
2 43623  55.6261 103.4899 0004170 301.0464  69.5626  1.86231292 29817
BEIDOU-3 M15 (C34)      
1 43647U 18078A   23036.83290598 -.00000095  00000+0  10000-3 0  9994
2 43647  55.0255 342.5813 0008265 359.5626 192.5358  1.86227326 29305
BEIDOU-3 M16 (C35)      
1 43648U 18078B   23038.02372162 -.00000089  00000+0  00000+0 0  9994
2 43648  55.0212 342.5465 0005030   4.9717 174.1778  1.86232065 29343
BEIDOU-3 G1 (C59)       
1 43683U 18085A   23038.61464620 -.00000272  00000+0  00000+0 0  9991
2 43683   1.1031 143.0394 0002068  43.7390 311.9521  1.00276109 15776
BEIDOU-3 M17 (C36)      
1 43706U 18093A   23037.90617453  .00000060  00000+0  00000+0 0  9995
2 43706  54.3006 223.9652 0006701 288.9828  70.9450  1.86232073 28702
BEIDOU-3 M18 (C37)      
1 43707U 18093B   23038.07990602  .00000061  00000+0  00000+0 0  9996
2 43707  54.3001 223.9511 0006693 328.2806 239.5717  1.86232198 28691
BEIDOU-3 IGSO-1 (C38)   
1 44204U 19023A   23038.43173516 -.00000182  00000+0  00000+0 0  9995
2 44204  56.9219  50.4530 0020548 208.9052 151.5670  1.00292854 14078
BEIDOU-2 G8             
1 44231U 19027A   23038.65818892 -.00000241  00000+0  00000+0 0  9992
2 44231   1.4364  80.8732 0005684 145.7442 292.3414  1.00275215 13789
BEIDOU-3 IGSO-2 (C39)   
1 44337U 19035A   23038.25836955 -.00000139  00000+0  00000+0 0  9990
2 44337  55.1393 169.6370 0029579 193.6553 345.6288  1.00285910 13405
BEIDOU-3 M23 (C45)      
1 44542U 19061A   23036.76899635  .00000060  00000+0  00000+0 0  9997
2 44542  54.5276 224.1920 0008480   3.9499 356.0639  1.86231399 22934
BEIDOU-3 M24 (C46)      
1 44543U 19061B   23038.57658144  .00000064  00000+0  00000+0 0  9991
2 44543  54.5241 224.1007 0005438   2.4856  41.0280  1.86231698 22962
BEIDOU-3 IGSO-3         
1 44709U 19073A   23035.97231126 -.00000151  00000+0  00000+0 0  9994
2 44709  56.8904 293.9658 0028810 179.3727 129.4196  1.00291612 12125
BEIDOU-3 M21            
1 44793U 19078A   23038.49210113 -.00000086  00000+0  10000-3 0  9997
2 44793  54.8739 342.5178 0006929   6.1053 173.2591  1.86232022 21823
BEIDOU-3 M22            
1 44794U 19078B   23038.09092575 -.00000088  00000+0  00000+0 0  9991
2 44794  54.8478 342.5183 0005138 357.3729 185.0983  1.86232496 21812
BEIDOU-3 M19            
1 44864U 19090A   23038.71725892  .00000002  00000+0  00000+0 0  9992
2 44864  55.5596 103.6536 0018253 271.1648 165.4328  1.86231913 21416
BEIDOU-3 M20            
1 44865U 19090B   23037.38146884 -.00000005  00000+0  00000+0 0  9997
2 44865  55.5611 103.7313 0016032 283.1417  67.6959  1.86231624 21354
BEIDOU-3 G2             
1 45344U 20017A   23038.58680164 -.00000135  00000+0  00000+0 0  9992
2 45344   1.9878   4.7216 0000938 333.2495  90.7400  1.00272874 10972
BEIDOU-3 G3             
1 45807U 20040A   23038.51731816 -.00000346  00000+0  00000+0 0  9990
2 45807   0.9357 314.6949 0008195 342.7742 136.5097  1.00264368  9783
